ISS (ZARYA)             
1 25544U 98067A   26090.13309952  .00011434  00000+0  21777-3 0  9998
2 25544  51.6341 326.3497 0006202 253.7499 106.2807 15.48671303559657
POISK                   
1 36086U 09060A   26090.13309952  .00011434  00000+0  21777-3 0  9996
2 36086  51.6341 326.3497 0006202 253.7499 106.2807 15.48671303559032
CSS (TIANHE)            
1 48274U 21035A   26090.27313627  .00027460  00000+0  31138-3 0  9991
2 48274  41.4667  76.7249 0003724  77.1096 283.0159 15.61745340280987
ISS (NAUKA)             
1 49044U 21066A   26090.13309952  .00011434  00000+0  21777-3 0  9994
2 49044  51.6341 326.3497 0006202 253.7499 106.2807 15.48671303559074
FREGAT DEB              
1 49271U 11037PF  26090.11572269  .00012346  00000+0  17652-1 0  9992
2 49271  51.6445 236.4162 0959359 108.5391 262.2026 12.40806237215350
CSS (WENTIAN)           
1 53239U 22085A   26090.27313627  .00027460  00000+0  31138-3 0  9994
2 53239  41.4667  76.7249 0003724  77.1096 283.0159 15.61745340281154
CSS (MENGTIAN)          
1 54216U 22143A   26090.27313627  .00027460  00000+0  31138-3 0  9995
2 54216  41.4667  76.7249 0003724  77.1096 283.0159 15.61745340281150
TIANZHOU-9              
1 64786U 25149A   26090.27313627  .00027460  00000+0  31138-3 0  9997
2 64786  41.4667  76.7249 0003724  77.1096 283.0159 15.61745340281153
PROGRESS-MS 32          
1 65586U 25204A   26090.13309952  .00011434  00000+0  21777-3 0  9991
2 65586  51.6341 326.3497 0006202 253.7499 106.2807 15.48671303554506
YOTSUBA-KULOVER         
1 65941U 98067XN  26090.00030786  .00487422  10502-3  13341-2 0  9998
2 65941  51.6171 305.8334 0006588 232.3255 127.7155 15.93445526 26889
BOTAN                   
1 65943U 98067XQ  26090.01293832  .00437127  84923-4  12667-2 0  9990
2 65943  51.6201 305.9446 0006756 227.9633 132.0799 15.92367740 26880
HRC MONOBLOCK CAMERA    
1 66052U 98067XR  26089.98660474  .00066817  00000+0  67994-3 0  9993
2 66052  51.6276 317.8675 0003846 195.0295 165.0587 15.64506748 25721
