CCSDS_OMM_VERS = 2.0
CREATION_DATE  = 
ORIGINATOR     = 

OBJECT_NAME    = ISS (ZARYA)
OBJECT_ID      = 1998-067A
CENTER_NAME    = EARTH
REF_FRAME      = TEME
TIME_SYSTEM    = UTC
MEAN_ELEMENT_THEORY = SGP/SGP4

EPOCH          = 2026-03-31T03:11:39.798528
MEAN_MOTION    = 15.48671303
ECCENTRICITY   = .00062028
INCLINATION    = 51.6341
RA_OF_ASC_NODE = 326.3497
ARG_OF_PERICENTER = 253.7499
MEAN_ANOMALY   = 106.2807

EPHEMERIS_TYPE = 0
CLASSIFICATION_TYPE = U
NORAD_CAT_ID   = 25544
ELEMENT_SET_NO = 999
REV_AT_EPOCH   = 55965
BSTAR          = .21776695E-3
MEAN_MOTION_DOT = .11434E-3
MEAN_MOTION_DDOT = 0

CCSDS_OMM_VERS = 2.0
CREATION_DATE  = 
ORIGINATOR     = 

OBJECT_NAME    = POISK
OBJECT_ID      = 2009-060A
CENTER_NAME    = EARTH
REF_FRAME      = TEME
TIME_SYSTEM    = UTC
MEAN_ELEMENT_THEORY = SGP/SGP4

EPOCH          = 2026-03-31T03:11:39.798528
MEAN_MOTION    = 15.48671303
ECCENTRICITY   = .00062028
INCLINATION    = 51.6341
RA_OF_ASC_NODE = 326.3497
ARG_OF_PERICENTER = 253.7499
MEAN_ANOMALY   = 106.2807

EPHEMERIS_TYPE = 0
CLASSIFICATION_TYPE = U
NORAD_CAT_ID   = 36086
ELEMENT_SET_NO = 999
REV_AT_EPOCH   = 55903
BSTAR          = .21776695E-3
MEAN_MOTION_DOT = .11434E-3
MEAN_MOTION_DDOT = 0

CCSDS_OMM_VERS = 2.0
CREATION_DATE  = 
ORIGINATOR     = 

OBJECT_NAME    = CSS (TIANHE)
OBJECT_ID      = 2021-035A
CENTER_NAME    = EARTH
REF_FRAME      = TEME
TIME_SYSTEM    = UTC
MEAN_ELEMENT_THEORY = SGP/SGP4

EPOCH          = 2026-03-31T06:33:18.973728
MEAN_MOTION    = 15.61745340
ECCENTRICITY   = .00037246
INCLINATION    = 41.4667
RA_OF_ASC_NODE = 76.7249
ARG_OF_PERICENTER = 77.1096
MEAN_ANOMALY   = 283.0159

EPHEMERIS_TYPE = 0
CLASSIFICATION_TYPE = U
NORAD_CAT_ID   = 48274
ELEMENT_SET_NO = 999
REV_AT_EPOCH   = 28098
BSTAR          = .31137636E-3
MEAN_MOTION_DOT = .2746E-3
MEAN_MOTION_DDOT = 0

CCSDS_OMM_VERS = 2.0
CREATION_DATE  = 
ORIGINATOR     = 

OBJECT_NAME    = ISS (NAUKA)
OBJECT_ID      = 2021-066A
CENTER_NAME    = EARTH
REF_FRAME      = TEME
TIME_SYSTEM    = UTC
MEAN_ELEMENT_THEORY = SGP/SGP4

EPOCH          = 2026-03-31T03:11:39.798528
MEAN_MOTION    = 15.48671303
ECCENTRICITY   = .00062028
INCLINATION    = 51.6341
RA_OF_ASC_NODE = 326.3497
ARG_OF_PERICENTER = 253.7499
MEAN_ANOMALY   = 106.2807

EPHEMERIS_TYPE = 0
CLASSIFICATION_TYPE = U
NORAD_CAT_ID   = 49044
ELEMENT_SET_NO = 999
REV_AT_EPOCH   = 55907
BSTAR          = .21776695E-3
MEAN_MOTION_DOT = .11434E-3
MEAN_MOTION_DDOT = 0

CCSDS_OMM_VERS = 2.0
CREATION_DATE  = 
ORIGINATOR     = 

OBJECT_NAME    = FREGAT DEB
OBJECT_ID      = 2011-037PF
CENTER_NAME    = EARTH
REF_FRAME      = TEME
TIME_SYSTEM    = UTC
MEAN_ELEMENT_THEORY = SGP/SGP4

EPOCH          = 2026-03-31T02:46:38.440416
MEAN_MOTION    = 12.40806237
ECCENTRICITY   = .09593598
INCLINATION    = 51.6445
RA_OF_ASC_NODE = 236.4162
ARG_OF_PERICENTER = 108.5391
MEAN_ANOMALY   = 262.2026

EPHEMERIS_TYPE = 0
CLASSIFICATION_TYPE = U
NORAD_CAT_ID   = 49271
ELEMENT_SET_NO = 999
REV_AT_EPOCH   = 21535
BSTAR          = .17651921E-1
MEAN_MOTION_DOT = .12346E-3
MEAN_MOTION_DDOT = 0

CCSDS_OMM_VERS = 2.0
CREATION_DATE  = 
ORIGINATOR     = 

OBJECT_NAME    = CSS (WENTIAN)
OBJECT_ID      = 2022-085A
CENTER_NAME    = EARTH
REF_FRAME      = TEME
TIME_SYSTEM    = UTC
MEAN_ELEMENT_THEORY = SGP/SGP4

EPOCH          = 2026-03-31T06:33:18.973728
MEAN_MOTION    = 15.61745340
ECCENTRICITY   = .00037246
INCLINATION    = 41.4667
RA_OF_ASC_NODE = 76.7249
ARG_OF_PERICENTER = 77.1096
MEAN_ANOMALY   = 283.0159

EPHEMERIS_TYPE = 0
CLASSIFICATION_TYPE = U
NORAD_CAT_ID   = 53239
ELEMENT_SET_NO = 999
REV_AT_EPOCH   = 28115
BSTAR          = .31137636E-3
MEAN_MOTION_DOT = .2746E-3
MEAN_MOTION_DDOT = 0

CCSDS_OMM_VERS = 2.0
CREATION_DATE  = 
ORIGINATOR     = 

OBJECT_NAME    = CSS (MENGTIAN)
OBJECT_ID      = 2022-143A
CENTER_NAME    = EARTH
REF_FRAME      = TEME
TIME_SYSTEM    = UTC
MEAN_ELEMENT_THEORY = SGP/SGP4

EPOCH          = 2026-03-31T06:33:18.973728
MEAN_MOTION    = 15.61745340
ECCENTRICITY   = .00037246
INCLINATION    = 41.4667
RA_OF_ASC_NODE = 76.7249
ARG_OF_PERICENTER = 77.1096
MEAN_ANOMALY   = 283.0159

EPHEMERIS_TYPE = 0
CLASSIFICATION_TYPE = U
NORAD_CAT_ID   = 54216
ELEMENT_SET_NO = 999
REV_AT_EPOCH   = 28115
BSTAR          = .31137636E-3
MEAN_MOTION_DOT = .2746E-3
MEAN_MOTION_DDOT = 0

CCSDS_OMM_VERS = 2.0
CREATION_DATE  = 
ORIGINATOR     = 

OBJECT_NAME    = TIANZHOU-9
OBJECT_ID      = 2025-149A
CENTER_NAME    = EARTH
REF_FRAME      = TEME
TIME_SYSTEM    = UTC
MEAN_ELEMENT_THEORY = SGP/SGP4

EPOCH          = 2026-03-31T06:33:18.973728
MEAN_MOTION    = 15.61745340
ECCENTRICITY   = .00037246
INCLINATION    = 41.4667
RA_OF_ASC_NODE = 76.7249
ARG_OF_PERICENTER = 77.1096
MEAN_ANOMALY   = 283.0159

EPHEMERIS_TYPE = 0
CLASSIFICATION_TYPE = U
NORAD_CAT_ID   = 64786
ELEMENT_SET_NO = 999
REV_AT_EPOCH   = 28115
BSTAR          = .31137636E-3
MEAN_MOTION_DOT = .2746E-3
MEAN_MOTION_DDOT = 0

CCSDS_OMM_VERS = 2.0
CREATION_DATE  = 
ORIGINATOR     = 

OBJECT_NAME    = PROGRESS-MS 32
OBJECT_ID      = 2025-204A
CENTER_NAME    = EARTH
REF_FRAME      = TEME
TIME_SYSTEM    = UTC
MEAN_ELEMENT_THEORY = SGP/SGP4

EPOCH          = 2026-03-31T03:11:39.798528
MEAN_MOTION    = 15.48671303
ECCENTRICITY   = .00062028
INCLINATION    = 51.6341
RA_OF_ASC_NODE = 326.3497
ARG_OF_PERICENTER = 253.7499
MEAN_ANOMALY   = 106.2807

EPHEMERIS_TYPE = 0
CLASSIFICATION_TYPE = U
NORAD_CAT_ID   = 65586
ELEMENT_SET_NO = 999
REV_AT_EPOCH   = 55450
BSTAR          = .21776695E-3
MEAN_MOTION_DOT = .11434E-3
MEAN_MOTION_DDOT = 0

CCSDS_OMM_VERS = 2.0
CREATION_DATE  = 
ORIGINATOR     = 

OBJECT_NAME    = YOTSUBA-KULOVER
OBJECT_ID      = 1998-067XN
CENTER_NAME    = EARTH
REF_FRAME      = TEME
TIME_SYSTEM    = UTC
MEAN_ELEMENT_THEORY = SGP/SGP4

EPOCH          = 2026-03-31T00:00:26.599104
MEAN_MOTION    = 15.93445526
ECCENTRICITY   = .00065882
INCLINATION    = 51.6171
RA_OF_ASC_NODE = 305.8334
ARG_OF_PERICENTER = 232.3255
MEAN_ANOMALY   = 127.7155

EPHEMERIS_TYPE = 0
CLASSIFICATION_TYPE = U
NORAD_CAT_ID   = 65941
ELEMENT_SET_NO = 999
REV_AT_EPOCH   = 2688
BSTAR          = .13340506E-2
MEAN_MOTION_DOT = .487422E-2
MEAN_MOTION_DDOT = .10502031E-3

CCSDS_OMM_VERS = 2.0
CREATION_DATE  = 
ORIGINATOR     = 

OBJECT_NAME    = BOTAN
OBJECT_ID      = 1998-067XQ
CENTER_NAME    = EARTH
REF_FRAME      = TEME
TIME_SYSTEM    = UTC
MEAN_ELEMENT_THEORY = SGP/SGP4

EPOCH          = 2026-03-31T00:18:37.870848
MEAN_MOTION    = 15.92367740
ECCENTRICITY   = .00067563
INCLINATION    = 51.6201
RA_OF_ASC_NODE = 305.9446
ARG_OF_PERICENTER = 227.9633
MEAN_ANOMALY   = 132.0799

EPHEMERIS_TYPE = 0
CLASSIFICATION_TYPE = U
NORAD_CAT_ID   = 65943
ELEMENT_SET_NO = 999
REV_AT_EPOCH   = 2688
BSTAR          = .12667212E-2
MEAN_MOTION_DOT = .437127E-2
MEAN_MOTION_DDOT = .84923006E-4

CCSDS_OMM_VERS = 2.0
CREATION_DATE  = 
ORIGINATOR     = 

OBJECT_NAME    = HRC MONOBLOCK CAMERA
OBJECT_ID      = 1998-067XR
CENTER_NAME    = EARTH
REF_FRAME      = TEME
TIME_SYSTEM    = UTC
MEAN_ELEMENT_THEORY = SGP/SGP4

EPOCH          = 2026-03-30T23:40:42.649536
MEAN_MOTION    = 15.64506748
ECCENTRICITY   = .00038462
INCLINATION    = 51.6276
RA_OF_ASC_NODE = 317.8675
ARG_OF_PERICENTER = 195.0295
MEAN_ANOMALY   = 165.0587

EPHEMERIS_TYPE = 0
CLASSIFICATION_TYPE = U
NORAD_CAT_ID   = 66052
ELEMENT_SET_NO = 999
REV_AT_EPOCH   = 2572
BSTAR          = .67994351E-3
MEAN_MOTION_DOT = .66817E-3
MEAN_MOTION_DDOT = 0

